IRIDIUM 921 [-]         
1 24873U 97034E   24020.97034038  .00025500  00000+0  86448-3 0  9993
2 24873  86.3858   0.9186 0008400  93.1505 267.0705 15.30388813452731
IRIDIUM 26 [-]          
1 24903U 97043A   24021.28331542  .00000917  00000+0  30808-3 0  9996
2 24903  86.3985 325.8322 0002189  81.8021 278.3424 14.36171602383100
IRIDIUM 22 [-]          
1 24907U 97043E   24021.22502236  .00000889  00000+0  30507-3 0  9998
2 24907  86.3989 328.9749 0002217  87.5254 272.6196 14.35070825383183
DUMMY MASS 1 [-]        
1 24925U 97048A   24020.99166086  .00000820  00000+0  90694-4 0  9994
2 24925  86.3347  12.4353 0007829 147.3821 212.7888 14.86008821428890
DUMMY MASS 2 [-]        
1 24926U 97048B   24021.00426976  .00000808  00000+0  89778-4 0  9992
2 24926  86.3345  13.9459 0008171 158.5342 201.6226 14.85769032428682
IRIDIUM 29 [-]          
1 24944U 97051A   24021.48375902  .00000831  00000+0  28211-3 0  9990
2 24944  86.3973 358.8047 0002385  92.5760 267.5709 14.35528446379910
IRIDIUM 33 [-]          
1 24946U 97051C   24021.02595959  .00000622  00000+0  21506-3 0  9996
2 24946  86.3887 358.2610 0006524 326.5610  33.5173 14.34232691379176
IRIDIUM 28 [-]          
1 24948U 97051E   24021.02792105  .00000845  00000+0  28155-3 0  9994
2 24948  86.3980 356.8072 0002048  78.6394 281.5033 14.36467899380151
